[{"OBJECT_NAME":"ACS3","OBJECT_ID":"2024-077B","EPOCH":"2026-03-09T20:35:31.743456","MEAN_MOTION":13.89619668,"ECCENTRICITY":0.00598178,"INCLINATION":97.2069,"RA_OF_ASC_NODE":9.932,"ARG_OF_PERICENTER":76.3572,"MEAN_ANOMALY":284.4244,"EPHEMERIS_TYPE":0,"CLASSIFICATION_TYPE":"U","NORAD_CAT_ID":59588,"ELEMENT_SET_NO":999,"REV_AT_EPOCH":9422,"BSTAR":0.019401649,"MEAN_MOTION_DOT":0.00024147,"MEAN_MOTION_DDOT":0},{"OBJECT_NAME":"UNKNOWN","OBJECT_ID":"","EPOCH":"2026-03-05T16:56:03.941952","MEAN_MOTION":12.09725851,"ECCENTRICITY":0.08987937,"INCLINATION":83.354,"RA_OF_ASC_NODE":228.995,"ARG_OF_PERICENTER":306.9685,"MEAN_ANOMALY":45.2294,"EPHEMERIS_TYPE":0,"CLASSIFICATION_TYPE":"U","NORAD_CAT_ID":270260,"ELEMENT_SET_NO":999,"REV_AT_EPOCH":26607,"BSTAR":0.0022809505,"MEAN_MOTION_DOT":7.22e-6,"MEAN_MOTION_DDOT":0}]
